COSMOS 2426 (717)       
1 29671U 06062B   19359.63414845 -.00000007  00000-0  10000-3 0  9993
2 29671  65.0357 273.8196 0019716 173.4829 328.2786  2.12962241101172
COSMOS 2433 (720)       
1 32275U 07052A   19359.35094039 -.00000048  00000-0  10000-3 0  9990
2 32275  65.9231  34.7586 0005039 245.8086  89.5600  2.13104473 94679
COSMOS 2432 (719)       
1 32276U 07052B   19358.92474998 -.00000048  00000-0  10000-3 0  9999
2 32276  65.9367  34.8580 0010720 318.2968   0.6999  2.13103632 94662
COSMOS 2434 (721)       
1 32393U 07065A   19358.93960441 -.00000010  00000-0  00000+0 0  9991
2 32393  64.6414 272.4431 0002583  79.9152 187.2899  2.13102871 93372
COSMOS 2436 (723)       
1 32395U 07065C   19359.27502685 -.00000008  00000-0  10000-3 0  9995
2 32395  64.6510 272.4808 0015403 337.2742 296.6788  2.13280928 93315
COSMOS 2456 (730)       
1 36111U 09070A   19359.30326984  .00000034  00000-0  00000+0 0  9996
2 36111  64.2135 152.0871 0002631 354.1829   5.3765  2.13102875 78047
COSMOS 2457 (733)       
1 36112U 09070B   19358.74806133  .00000040  00000-0  00000+0 0  9990
2 36112  64.1941 152.0041 0006823 146.7010 271.0384  2.13101508 78046
COSMOS 2459 (731)       
1 36400U 10007A   19358.58672295 -.00000047  00000-0  10000-3 0  9997
2 36400  65.8281  33.7767 0024985 344.8904 339.0241  2.13105149 76380
COSMOS 2461 (735)       
1 36401U 10007B   19359.42444860 -.00000049  00000-0  10000-3 0  9999
2 36401  65.8216  33.7224 0004406  51.8184 104.8499  2.13101947 76406
COSMOS 2460 (732)       
1 36402U 10007C   19358.42276684 -.00000047  00000-0  10000-3 0  9994
2 36402  65.8099  33.7145 0002283 237.5725 270.1310  2.13101450 76388
COSMOS 2464 (736)       
1 37139U 10041C   19358.66540875 -.00000012  00000-0  00000+0 0  9999
2 37139  64.2425 271.9792 0026446   8.8026 272.9508  2.13100762 72454
COSMOS 2474 (742)       
1 37829U 11055A   19358.65466084  .00000043  00000-0  00000-0 0  9993
2 37829  64.5335 153.0609 0007920 239.8823 197.6224  2.13101900 64035
COSMOS 2476 (744)       
1 37867U 11064A   19358.79090296  .00000042  00000-0  00000+0 0  9996
2 37867  64.5138 153.1035 0017436 232.9322 355.2799  2.13101924 63385
COSMOS 2477 (745)       
1 37868U 11064B   19359.56875963  .00000033  00000-0  00000+0 0  9995
2 37868  64.5224 153.1325 0015019 233.6282  49.9308  2.13101776 63357
COSMOS 2475 (743)       
1 37869U 11064C   19359.06010609  .00000038  00000-0  00000+0 0  9994
2 37869  64.5297 153.1495 0018449 260.4727 310.1345  2.13101950 63356
COSMOS 2485 (747)       
1 39155U 13019A   19358.72474215  .00000043  00000-0  00000+0 0  9991
2 39155  64.6826 153.3374 0018107 228.2694 353.8483  2.13101895 51856
COSMOS 2492 (754)       
1 39620U 14012A   19358.61857579 -.00000048  00000-0  10000-3 0  9999
2 39620  65.7007  33.5152 0013942 317.0644 218.6953  2.13103406 44800
COSMOS 2500 (755)       
1 40001U 14032A   19359.62931860 -.00000050  00000-0  00000+0 0  9992
2 40001  65.6419  33.4094 0008242 218.1885 233.9138  2.13102281 43040
COSMOS 2501 (702K)      
1 40315U 14075A   19358.65646296 -.00000015  00000-0  00000+0 0  9996
2 40315  63.9611 272.9907 0016051 211.1111  11.0530  2.13098488 39429
COSMOS 2514 (751)       
1 41330U 16008A   19358.72618657 -.00000049  00000-0  00000+0 0  9997
2 41330  65.4439  33.3563 0011866 220.4376  80.9105  2.13103050 30183
COSMOS 2516 (753)       
1 41554U 16032A   19358.80476426 -.00000013  00000-0  00000-0 0  9999
2 41554  64.1840 273.0063 0012580 224.4835  27.7874  2.13101821 27798
COSMOS 2522 (752)       
1 42939U 17055A   19359.11625543 -.00000011  00000-0  00000+0 0  9991
2 42939  64.4177 273.1252 0007583 256.4581 101.3038  2.13101860 17550
COSMOS 2527 (756)       
1 43508U 18053A   19358.45188042  .00000047  00000-0  00000-0 0  9996
2 43508  64.8457 153.1570 0005878 213.9607  25.6800  2.13102628 11833
COSMOS 2529 (757)       
1 43687U 18086A   19358.59727731 -.00000015  00000-0  00000+0 0  9994
2 43687  64.6288 273.2140 0010985 275.8379 359.4425  2.13102100  8850
COSMOS 2534 (758)       
1 44299U 19030A   19358.76924431 -.00000013  00000-0  00000+0 0  9997
2 44299  64.6979 273.0100 0014341 291.6790 250.6586  2.13101953  4507
